NORAD_CAT_ID,OBJECT_NAME,OBJECT_TYPE,EPOCH,MEAN_MOTION,ECCENTRICITY,INCLINATION,RA_OF_ASC_NODE,ARG_OF_PERICENTER,MEAN_ANOMALY,BSTAR,MEAN_MOTION_DOT,MEAN_MOTION_DDOT,TLE_LINE0,TLE_LINE1,TLE_LINE2,SEMIMAJOR_AXIS,PERIOD,APOGEE,PERIGEE,DECAYED
50174.0,STARLINK-3292,PAYLOAD,2022-08-08 10:46:58,15.08850157,0.0001419999999999,53.2175,6.5436,59.6675,300.4457,0.00021882,3.197e-05,0.0,0 STARLINK-3292,1 50174U 21125U   22220.44929125  .00003197  00000-0  21882-3 0  9996,2 50174  53.2175   6.5436 0001420  59.6675 300.4457 15.08850157 38465,6917.849,95.437,540.697,538.732,0.0
50174.0,STARLINK-3292,PAYLOAD,2022-08-08 20:19:17,15.08860251,0.0001415,53.2173,4.7594,59.4275,300.6856,0.0004487,6.864e-05,0.0,0 STARLINK-3292,1 50174U 21125U   22220.84672632  .00006864  00000-0  44870-3 0  9994,2 50174  53.2173   4.7594 0001415  59.4275 300.6856 15.08860251 39053,6917.818,95.436,540.6619999999998,538.705,0.0
50174.0,STARLINK-3292,PAYLOAD,2022-08-09 10:37:45,15.08848708,0.0001873,53.2183,2.083,65.5911,294.5277,0.00011223,1.499e-05,0.0,0 STARLINK-3292,1 50174U 21125U   22221.44288773  .00001499  00000-0  11223-3 0  9995,2 50174  53.2183   2.0830 0001873  65.5911 294.5277 15.08848708 38613,6917.854,95.437,541.014,538.423,0.0
50174.0,STARLINK-3292,PAYLOAD,2022-08-10 12:03:56,15.08818728,0.0001355,53.2165,357.3245,58.9519,301.1606,-0.00032097,-5.389e-05,0.0,0 STARLINK-3292,1 50174U 21125U   22222.50274199 -.00005389  00000-0 -32097-3 0  9996,2 50174  53.2165 357.3245 0001355  58.9519 301.1606 15.08818728 38771,6917.945,95.439,540.748,538.873,0.0
50174.0,STARLINK-3292,PAYLOAD,2022-08-10 18:25:29,15.08819273,0.0001309,53.2175,356.1356,57.8462,302.2657,-0.00024581,-4.196e-05,0.0,0 STARLINK-3292,1 50174U 21125U   22222.76770669 -.00004196  00000-0 -24581-3 0  9991,2 50174  53.2175 356.1356 0001309  57.8462 302.2657 15.08819273 39344,6917.944,95.439,540.714,538.903,0.0
50174.0,STARLINK-3292,PAYLOAD,2022-08-11 13:30:08,15.08827601,0.0001314,53.219,352.5683,58.7431,301.369,1.9598e-05,2.4e-07,0.0,0 STARLINK-3292,1 50174U 21125U   22223.56259441  .00000024  00000-0  19598-4 0  9997,2 50174  53.2190 352.5683 0001314  58.7431 301.3690 15.08827601 39460,6917.918000000002,95.438,540.692,538.874,0.0
50174.0,STARLINK-3292,PAYLOAD,2022-08-11 18:16:17,15.08825317,0.0001425,53.218,351.676,53.1771,306.9352,9.1437e-05,1.167e-05,0.0,0 STARLINK-3292,1 50174U 21125U   22223.76131635  .00001167  00000-0  91437-4 0  9994,2 50174  53.2180 351.6760 0001425  53.1771 306.9352 15.08825317 38966,6917.925,95.438,540.776,538.804,0.0
50174.0,STARLINK-3292,PAYLOAD,2022-08-12 13:20:55,15.08837108,0.0001415,53.2182,348.1078,57.1005,303.0123,0.00031517,4.731e-05,0.0,0 STARLINK-3292,1 50174U 21125U   22224.55619275  .00004731  00000-0  31517-3 0  9995,2 50174  53.2182 348.1078 0001415  57.1005 303.0123 15.08837108 39083,6917.889,95.438,540.7330000000002,538.775,0.0
50174.0,STARLINK-3292,PAYLOAD,2022-08-12 18:07:04,15.08847362,0.000146,53.2177,347.2156,56.7689,303.3443,0.00050037,7.686e-05,0.0,0 STARLINK-3292,1 50174U 21125U   22224.75491604  .00007686  00000-0  50037-3 0  9991,2 50174  53.2177 347.2156 0001460  56.7689 303.3443 15.08847362 39640,6917.858,95.437,540.7330000000002,538.7130000000002,0.0
50174.0,STARLINK-3292,PAYLOAD,2022-08-13 13:11:41,15.0885717,0.0001538,53.2178,343.6471,56.1708,303.943,0.00031232,4.688e-05,0.0,0 STARLINK-3292,1 50174U 21125U   22225.54978952  .00004688  00000-0  31232-3 0  9990,2 50174  53.2178 343.6471 0001538  56.1708 303.9430 15.08857170 39766,6917.828,95.436,540.757,538.629,0.0
50174.0,STARLINK-3292,PAYLOAD,2022-08-13 17:57:51,15.08845249,0.0001631,53.2177,342.7554,56.6287,303.4861,4.0602e-06,-2.23e-06,0.0,0 STARLINK-3292,1 50174U 21125U   22225.74851276 -.00000223  00000-0  40602-5 0  9996,2 50174  53.2177 342.7554 0001631  56.6287 303.4861 15.08845249 39798,6917.864000000001,95.437,540.8580000000002,538.601,0.0
50174.0,STARLINK-3292,PAYLOAD,2022-08-14 11:27:05,15.08849043,0.000171,53.2178,339.4849,60.6251,299.4912,8.9515e-05,1.137e-05,0.0,0 STARLINK-3292,1 50174U 21125U   22226.47714990  .00001137  00000-0  89515-4 0  9997,2 50174  53.2178 339.4849 0001710  60.6251 299.4912 15.08849043 39903,6917.853,95.437,540.901,538.535,0.0
50174.0,STARLINK-3292,PAYLOAD,2022-08-14 17:48:38,15.08850694,0.0001778,53.2177,338.2951,64.2935,295.8241,0.00018483,2.656e-05,0.0,0 STARLINK-3292,1 50174U 21125U   22226.74210776  .00002656  00000-0  18483-3 0  9992,2 50174  53.2177 338.2951 0001778  64.2935 295.8241 15.08850694 39949,6917.848000000001,95.437,540.943,538.4830000000002,0.0
50174.0,STARLINK-3292,PAYLOAD,2022-08-15 08:07:06,15.08844511,0.0001621,53.217,335.6183,60.0209,300.0944,0.00012125,1.642e-05,0.0,0 STARLINK-3292,1 50174U 21125U   22227.33826795  .00001642  00000-0  12125-3 0  9993,2 50174  53.2170 335.6183 0001621  60.0209 300.0944 15.08844511 39507,6917.8669999999975,95.437,540.8530000000002,538.61,0.0
50174.0,STARLINK-3292,PAYLOAD,2022-08-15 16:04:02,15.08842968,0.0001672,53.2165,334.1316,59.0482,301.0674,9.041e-05,1.151e-05,0.0,0 STARLINK-3292,1 50174U 21125U   22227.66946830  .00001151  00000-0  90410-4 0  9991,2 50174  53.2165 334.1316 0001672  59.0482 301.0674 15.08842968 40080,6917.871,95.437,540.893,538.58,0.0
50174.0,STARLINK-3292,PAYLOAD,2022-08-16 11:08:40,15.08836929,0.0001669,53.2167,330.5626,58.0175,302.0979,-3.8189e-05,-8.96e-06,0.0,0 STARLINK-3292,1 50174U 21125U   22228.46435290 -.00000896  00000-0 -38189-4 0  9995,2 50174  53.2167 330.5626 0001669  58.0175 302.0979 15.08836929 40203,6917.89,95.438,540.909,538.6,0.0
50174.0,STARLINK-3292,PAYLOAD,2022-08-16 15:54:49,15.08835776,0.0001679,53.2167,329.6705,57.9917,302.1238,-4.7485e-05,-1.044e-05,0.0,0 STARLINK-3292,1 50174U 21125U   22228.66307394 -.00001044  00000-0 -47485-4 0  9995,2 50174  53.2167 329.6705 0001679  57.9917 302.1238 15.08835776 40234,6917.893,95.438,540.92,538.597,0.0
50174.0,STARLINK-3292,PAYLOAD,2022-08-17 12:34:49,15.08847377,0.0001482,53.2179,325.8053,56.5576,303.5557,0.00016094,2.275e-05,0.0,0 STARLINK-3292,1 50174U 21125U   22229.52418855  .00002275  00000-0  16094-3 0  9992,2 50174  53.2179 325.8053 0001482  56.5576 303.5557 15.08847377 39832,6917.858,95.437,540.748,538.698,0.0
50174.0,STARLINK-3292,PAYLOAD,2022-08-18 10:50:13,15.08847121,0.0001588,53.2171,321.6426,58.5592,301.5555,0.00024109,3.552e-05,0.0,0 STARLINK-3292,1 50174U 21125U   22230.45154930  .00003552  00000-0  24109-3 0  9992,2 50174  53.2171 321.6426 0001588  58.5592 301.5555 15.08847121 40508,6917.859,95.437,540.822,538.625,0.0
50174.0,STARLINK-3292,PAYLOAD,2022-08-18 17:11:46,15.088525400000002,0.0001599,53.2167,320.4526,61.3898,298.7255,0.00028939,4.322e-05,0.0,0 STARLINK-3292,1 50174U 21125U   22230.71650547  .00004322  00000-0  28939-3 0  9997,2 50174  53.2167 320.4526 0001599  61.3898 298.7255 15.08852540 40543,6917.842,95.437,540.813,538.601,0.0
50174.0,STARLINK-3292,PAYLOAD,2022-08-18 23:33:19,15.08839585,0.0001581,53.2166,319.2626,64.251,295.8645,0.00040297,6.131e-05,0.0,0 STARLINK-3292,1 50174U 21125U   22230.98147160  .00006131  00000-0  40297-3 0  9999,2 50174  53.2166 319.2626 0001581  64.2510 295.8645 15.08839585 40054,6917.882,95.438,540.84,538.653,0.0
50174.0,STARLINK-3292,PAYLOAD,2022-08-19 10:41:00,15.08845449,0.0001649,53.216,317.1807,62.4642,297.6517,9.0808e-06,-1.44e-06,0.0,0 STARLINK-3292,1 50174U 21125U   22231.44514611 -.00000144  00000-0  90808-5 0  9994,2 50174  53.2160 317.1807 0001649  62.4642 297.6517 15.08845449 40657,6917.864000000001,95.437,540.869,538.5880000000002,0.0
50174.0,STARLINK-3292,PAYLOAD,2022-08-19 12:16:23,15.08845436,0.0001645,53.2169,316.8836,64.2901,295.8261,1.3700999999999998e-06,-2.66e-06,0.0,0 STARLINK-3292,1 50174U 21125U   22231.51138736 -.00000266  00000-0  13701-5 0  9994,2 50174  53.2169 316.8836 0001645  64.2901 295.8261 15.08845436 40661,6917.864000000001,95.437,540.867,538.591,0.0
50174.0,STARLINK-3292,PAYLOAD,2022-08-20 12:07:11,15.08839643,0.0001713,53.2177,312.4236,63.6022,296.5146,-3.8727e-05,-9.04e-06,0.0,0 STARLINK-3292,1 50174U 21125U   22232.50499012 -.00000904  00000-0 -38727-4 0  9995,2 50174  53.2177 312.4236 0001713  63.6022 296.5146 15.08839643 40819,6917.880999999999,95.438,540.932,538.561,0.0
50174.0,STARLINK-3292,PAYLOAD,2022-08-20 13:42:34,15.08840339,0.0001686,53.2177,312.1263,65.5792,294.5376,-4.8145e-05,-1.054e-05,0.0,0 STARLINK-3292,1 50174U 21125U   22232.57123038 -.00001054  00000-0 -48145-4 0  9996,2 50174  53.2177 312.1263 0001686  65.5792 294.5376 15.08840339 40828,6917.879,95.438,540.911,538.578,0.0
50174.0,STARLINK-3292,PAYLOAD,2022-08-21 05:36:26,15.08829591,0.0001925,53.2169,309.1547,63.1401,296.9787,-7.5322e-05,-1.486e-05,0.0,0 STARLINK-3292,1 50174U 21125U   22233.23364089 -.00001486  00000-0 -75322-4 0  9999,2 50174  53.2169 309.1547 0001925  63.1401 296.9787 15.08829591 40398,6917.9119999999975,95.438,541.109,538.446,0.0
50174.0,STARLINK-3292,PAYLOAD,2022-08-21 11:57:59,15.08829271,0.0001705,53.2176,307.9654,59.0477,301.0682,-1.6345e-05,-5.48e-06,0.0,0 STARLINK-3292,1 50174U 21125U   22233.49860121 -.00000548  00000-0 -16345-4 0  9993,2 50174  53.2176 307.9654 0001705  59.0477 301.0682 15.08829271 40964,6917.913000000001,95.438,540.9580000000002,538.599,0.0
50174.0,STARLINK-3292,PAYLOAD,2022-08-22 05:27:13,15.08835309,0.0001728,53.2174,304.6945,57.6038,302.5121,3.8791e-05,3.29e-06,0.0,0 STARLINK-3292,1 50174U 21125U   22234.22724031  .00000329  00000-0  38791-4 0  9998,2 50174  53.2174 304.6945 0001728  57.6038 302.5121 15.08835309 40548,6917.895,95.438,540.955,538.564,0.0
50174.0,STARLINK-3292,PAYLOAD,2022-08-22 08:37:59,15.08835775,0.0001617,53.2178,304.0999,68.79,291.3265,4.4932e-05,4.27e-06,0.0,0 STARLINK-3292,1 50174U 21125U   22234.35971994  .00000427  00000-0  44932-4 0  9997,2 50174  53.2178 304.0999 0001617  68.7900 291.3265 15.08835775 41095,6917.893,95.438,540.877,538.64,0.0
